OBJECT_NAME,OBJECT_ID,EPOCH,MEAN_MOTION,ECCENTRICITY,INCLINATION,RA_OF_ASC_NODE,ARG_OF_PERICENTER,MEAN_ANOMALY,EPHEMERIS_TYPE,CLASSIFICATION_TYPE,NORAD_CAT_ID,ELEMENT_SET_NO,REV_AT_EPOCH,BSTAR,MEAN_MOTION_DOT,MEAN_MOTION_DDOT
KUIPER-00428,2026-140B,2026-07-12T13:19:28.001280,15.36912257,.00080515,51.8810,276.2428,21.6198,338.5127,0,U,69593,999,513,.26879136E-3,.9481E-4,0
KUIPER-00481,2026-140C,2026-07-12T12:42:41.092992,15.37967945,.00108292,51.8780,276.0760,273.5449,86.4299,0,U,69594,999,513,.41838709E-3,.15533E-3,0
KUIPER-00490,2026-140D,2026-07-12T14:30:10.836576,15.37923244,.00069435,51.8779,275.8189,332.5032,27.5587,0,U,69595,999,514,.45563002E-3,.16912E-3,0
KUIPER-00493,2026-140E,2026-07-12T13:26:23.841024,15.36632971,.00077813,51.8811,276.2733,29.3534,330.7889,0,U,69596,999,513,.27043621E-3,.9453E-4,0
KUIPER-00496,2026-140F,2026-07-12T10:47:47.568768,15.34275274,.00101524,51.8776,277.0215,41.1780,318.9970,0,U,69597,999,511,.30833893E-3,.10034E-3,0
KUIPER-00513,2026-140G,2026-07-12T14:25:56.669376,15.38121124,.00074661,51.8814,275.8078,328.9554,31.0991,0,U,69598,999,514,.37161004E-3,.13806E-3,0
KUIPER-00516,2026-140H,2026-07-12T14:36:31.681728,15.37561991,.00070043,51.8798,275.8479,345.9177,14.1614,0,U,69599,999,514,.36855931E-3,.13436E-3,0
KUIPER-00517,2026-140J,2026-07-12T06:18:04.355424,15.38784514,.0010493,51.8781,277.2806,280.9937,78.9870,0,U,69600,999,509,.51316E-3,.19676E-3,0
KUIPER-00520,2026-140K,2026-07-12T13:04:19.200288,15.37615748,.00068934,51.8829,276.1796,347.2646,12.8166,0,U,69601,999,513,.4586538E-3,.16855E-3,0
KUIPER-00522,2026-140L,2026-07-12T10:53:33.164448,15.38612345,.0013053,51.8796,276.3223,258.0120,101.9404,0,U,69602,999,512,.4263989E-3,.16196E-3,0
KUIPER-00528,2026-140M,2026-07-12T14:41:25.271520,15.37466391,.00063735,51.8788,275.8726,354.1957,5.8955,0,U,69603,999,514,.38264182E-3,.1392E-3,0
KUIPER-00532,2026-140N,2026-07-12T13:21:47.259936,15.36593902,.00055095,51.8801,276.2470,24.5719,335.5529,0,U,69604,999,513,.27904214E-3,.9751E-4,0
KUIPER-00533,2026-140P,2026-07-12T11:13:24.056256,15.38244267,.00079856,51.8813,276.4005,316.1760,43.8593,0,U,69605,999,512,.87785331E-3,.33382E-3,0
KUIPER-00534,2026-140Q,2026-07-12T10:46:22.995264,15.38687944,.00128729,51.8820,276.2971,267.2445,92.7069,0,U,69606,999,512,.64263489E-3,.24701E-3,0
KUIPER-00537,2026-140R,2026-07-11T14:23:35.367360,15.34296234,.00110069,51.8811,281.0851,42.8840,317.3002,0,U,69607,999,498,.36402965E-3,.11929E-3,0
KUIPER-00538,2026-140S,2026-07-12T13:00:57.560832,15.37691608,.00069128,51.8813,276.1626,334.9005,25.1645,0,U,69608,999,513,.2602778E-3,.9408E-4,0
KUIPER-00540,2026-140T,2026-07-12T14:49:51.861504,15.36933306,.00067354,51.8824,275.9170,14.4196,345.6981,0,U,69609,999,514,.34513034E-3,.12296E-3,0
KUIPER-00541,2026-140U,2026-07-12T12:46:49.271808,15.35844370,.00020861,51.8781,276.0963,47.9918,312.1245,0,U,69610,999,513,-.77179649E-2,-.264406E-2,0
KUIPER-00542,2026-140V,2026-07-12T12:44:44.518848,15.38245968,.00074677,51.8785,276.0869,293.9384,66.0821,0,U,69611,999,513,.72921214E-3,.27639E-3,0
KUIPER-00543,2026-140W,2026-07-12T11:48:50.605632,15.36803491,.00077995,51.8787,276.5601,25.6702,334.4670,0,U,69612,999,512,.47469651E-3,.17002E-3,0
KUIPER-00544,2026-140X,2026-07-12T14:24:28.639008,15.38141343,.00066937,51.8786,275.7960,311.0790,48.9618,0,U,69613,999,514,.33898879E-3,.12564E-3,0
KUIPER-00546,2026-140Y,2026-07-12T10:47:17.138688,15.38834385,.00137146,51.8781,276.2891,257.6373,102.3080,0,U,69614,999,512,.48034216E-3,.18442E-3,0
KUIPER-00547,2026-140Z,2026-07-12T12:41:52.926720,15.37875853,.00109544,51.8817,276.0782,279.3910,80.5839,0,U,69615,999,513,.40771924E-3,.15081E-3,0
KUIPER-00549,2026-140AA,2026-07-12T11:36:14.278176,15.37312837,.00073762,51.8805,276.5058,5.5176,354.5891,0,U,69616,999,512,.54270577E-3,.19828E-3,0
KUIPER-00550,2026-140AB,2026-07-12T14:00:01.999872,15.32041144,.00079763,51.8787,276.4781,56.8635,274.7785,0,U,69617,999,438,.75200334E-3,.23331E-3,0
KUIPER-00551,2026-140AC,2026-07-12T10:57:27.565056,15.38393313,.00122431,51.8784,276.3279,261.7916,98.1683,0,U,69618,999,512,.58361132E-3,.22165E-3,0
KUIPER-00554,2026-140AD,2026-07-12T06:25:05.010240,15.37928096,.0011177,51.8780,277.3159,281.0431,78.9299,0,U,69619,999,509,.27433E-3,.10028E-3,0
KUIPER-00555,2026-140AE,2026-07-12T08:00:01.999872,15.37916666,.00113043,51.8816,276.9742,267.6743,112.7047,0,U,69620,999,457,-.36699941E-3,-.14303E-3,0
KUIPER-00556,2026-140AF,2026-07-12T12:34:41.828736,15.38286033,.00118335,51.8796,276.0439,257.6346,102.3317,0,U,69621,999,513,.48987026E-3,.18462E-3,0
KUIPER-00557,2026-140AG,2026-07-12T12:46:42.985344,15.37543982,.000993,51.8806,276.0995,291.6593,68.3336,0,U,69622,999,513,.32775371E-3,.11904E-3,0
